COSMOS 2433 (720)       
1 32275U 07052A   22211.71686051 -.00000055  00000+0  00000+0 0  9994
2 32275  66.0822   3.2345 0001707 179.6696 151.3773  2.13104150114887
COSMOS 2432 (719)       
1 32276U 07052B   22211.78096174 -.00000055  00000+0  00000+0 0  9993
2 32276  66.0961   3.3346 0008185 340.5713 347.8654  2.13103348114888
COSMOS 2434 (721)       
1 32393U 07065A   22211.89493797  .00000072  00000+0  00000+0 0  9999
2 32393  64.3780 239.9434 0000874 148.4455 208.9376  2.13103144113597
COSMOS 2436 (723)       
1 32395U 07065C   22211.97975322  .00000072  00000+0  00000+0 0  9999
2 32395  64.3864 239.9986 0014605 351.6852 206.6259  2.13102996113533
COSMOS 2456 (730)       
1 36111U 09070A   22212.38827689  .00000015  00000+0  00000+0 0  9992
2 36111  64.3627 119.5462 0004307 313.8961 226.9305  2.13099407 98273
COSMOS 2457 (733)       
1 36112U 09070B   22212.27901412  .00000015  00000+0  00000+0 0  9998
2 36112  64.3465 119.4242 0004149 172.3336  52.3049  2.13101535 98279
COSMOS 2461 (735)       
1 36401U 10007B   22212.14692701 -.00000054  00000+0  00000+0 0  9999
2 36401  65.9672   2.0521 0019851  13.4964 144.8566  2.13103696 96620
COSMOS 2460 (732)       
1 36402U 10007C   22212.22020588 -.00000053  00000+0  00000+0 0  9996
2 36402  65.9540   1.9995 0002559 103.8697  59.5402  2.13106362 96626
COSMOS 2464 (736)       
1 37139U 10041C   22211.87058550  .00000072  00000+0  00000+0 0  9992
2 37139  63.9771 238.9986 0027884   6.4340 190.1706  2.13100814 92677
COSMOS 2476 (744)       
1 37867U 11064A   22212.45625196  .00000017  00000+0  00000+0 0  9996
2 37867  64.6507 120.9169 0021806 238.3004 260.5473  2.13101851 83624
COSMOS 2477 (745)       
1 37868U 11064B   22212.25254928  .00000016  00000+0  00000+0 0  9995
2 37868  64.6589 120.9890 0019071 239.7424 280.9264  2.13101758 83572
COSMOS 2475 (743)       
1 37869U 11064C   22212.80118868  .00000018  00000+0  00000+0 0  9991
2 37869  64.6663 120.9788 0023466 256.8018 282.8314  2.13102138 83596
COSMOS 2485 (747)       
1 39155U 13019A   22211.98713660  .00000015  00000+0  00000+0 0  9999
2 39155  64.8147 121.3704 0022240 234.2549 309.1017  2.13102039 72081
COSMOS 2492 (754)       
1 39620U 14012A   22212.40743819 -.00000053  00000+0  00000+0 0  9990
2 39620  65.8385   1.6687 0010883 330.8063 209.4258  2.13103162 65042
COSMOS 2500 (755)       
1 40001U 14032A   22212.09927660 -.00000054  00000+0  00000+0 0  9991
2 40001  65.7789   1.5364 0006619 180.6746 341.6957  2.13102350 63250
COSMOS 2501 (702K)      
1 40315U 14075A   22211.91147491  .00000071  00000+0  00000+0 0  9990
2 40315  63.6846 239.6490 0019360 211.5973 334.9081  2.13101477 59657
COSMOS 2514 (751)       
1 41330U 16008A   22212.58637891 -.00000053  00000+0  00000+0 0  9999
2 41330  65.5791   1.2020 0010154 199.3009 160.6661  2.13102826 50436
COSMOS 2516 (753)       
1 41554U 16032A   22212.22531352  .00000071  00000+0  00000+0 0  9999
2 41554  63.9100 239.9263 0014962 216.2686 130.3273  2.13106452 48024
COSMOS 2522 (752)       
1 42939U 17055A   22212.47640587  .00000071  00000+0  00000+0 0  9991
2 42939  64.1440 240.3259 0009840 243.4186 151.8684  2.13101981 37797
COSMOS 2527 (756)       
1 43508U 18053A   22211.87438179  .00000014  00000+0  00000+0 0  9995
2 43508  64.9779 121.3835 0008285 236.2397  89.2912  2.13102522 32062
COSMOS 2529 (757)       
1 43687U 18086A   22211.14151153  .00000072  00000+0  00000+0 0  9997
2 43687  64.3592 240.6994 0011535 262.6539 144.0800  2.13102178 29071
COSMOS 2534 (758)       
1 44299U 19030A   22212.07587234  .00000071  00000+0  00000+0 0  9992
2 44299  64.4307 240.5564 0013952 281.2224 256.8707  2.13102039 24733
COSMOS 2544 (759)       
1 44850U 19088A   22211.90514737  .00000015  00000+0  16595+1 0  9992
2 44850  64.9627 121.2334 0012852 261.4480 131.1187  2.13102336 20506
COSMOS 2545 (760)       
1 45358U 20018A   22212.50723510 -.00000054  00000+0  00000+0 0  9996
2 45358  64.9172   1.7761 0007171 235.2646 108.6283  2.13102711 18467
COSMOS 2547 (705K)      
1 46805U 20075A   22212.27399403  .00000072  00000+0  00000+0 0  9990
2 46805  64.6556 239.9870 0008613 245.2048 132.7290  2.13103154 13714
COSMOS 2557 (706K)      
1 52984U 22075A   22212.91678508 -.00000052  00000+0  10000-3 0  9998
2 52984  64.8206   3.9660 0010433 281.1147 108.1904  2.13101858   524
